[{"OBJECT_NAME":"STARLINK-30896","OBJECT_ID":"2023-177C","EPOCH":"2026-03-09T10:11:21.794784","MEAN_MOTION":15.2757555,"ECCENTRICITY":9.289e-5,"INCLINATION":42.9994,"RA_OF_ASC_NODE":210.2995,"ARG_OF_PERICENTER":271.557,"MEAN_ANOMALY":88.5175,"EPHEMERIS_TYPE":0,"CLASSIFICATION_TYPE":"U","NORAD_CAT_ID":58353,"ELEMENT_SET_NO":999,"REV_AT_EPOCH":12979,"BSTAR":2.0241036e-5,"MEAN_MOTION_DOT":2.95e-6,"MEAN_MOTION_DDOT":0},{"OBJECT_NAME":"FLOCK 4G-3","OBJECT_ID":"2025-009AG","EPOCH":"2026-03-09T19:14:30.392160","MEAN_MOTION":15.2717931,"ECCENTRICITY":0.00013196,"INCLINATION":97.4062,"RA_OF_ASC_NODE":151.4068,"ARG_OF_PERICENTER":293.2042,"MEAN_ANOMALY":66.9058,"EPHEMERIS_TYPE":0,"CLASSIFICATION_TYPE":"U","NORAD_CAT_ID":62639,"ELEMENT_SET_NO":999,"REV_AT_EPOCH":6372,"BSTAR":0.0004338875,"MEAN_MOTION_DOT":0.00011494,"MEAN_MOTION_DDOT":0}]
